*******************************************************************************
 Revised: April 12, 2021                 Earth                              399
 
 GEOPHYSICAL PROPERTIES (revised May 9, 2022):
  Vol. Mean Radius (km)    = 6371.01+-0.02   Mass x10^24 (kg)= 5.97219+-0.0006
  Equ. radius, km          = 6378.137        Mass layers:
  Polar axis, km           = 6356.752          Atmos         = 5.1   x 10^18 kg
  Flattening               = 1/298.257223563   oceans        = 1.4   x 10^21 kg
  Density, g/cm^3          = 5.51              crust         = 2.6   x 10^22 kg
  J2 (IERS 2010)           = 0.00108262545     mantle        = 4.043 x 10^24 kg
  g_p, m/s^2  (polar)      = 9.8321863685      outer core    = 1.835 x 10^24 kg
  g_e, m/s^2  (equatorial) = 9.7803267715      inner core    = 9.675 x 10^22 kg
  g_o, m/s^2               = 9.82022         Fluid core rad  = 3480 km
  GM, km^3/s^2             = 398600.435436   Inner core rad  = 1215 km
  GM 1-sigma, km^3/s^2     =      0.0014     Escape velocity = 11.186 km/s
  Rot. Rate (rad/s)        = 0.00007292115   Surface area:
  Mean sidereal day, hr    = 23.9344695944     land          = 1.48 x 10^8 km
  Mean solar day 2000.0, s = 86400.002         sea           = 3.62 x 10^8 km
  Mean solar day 1820.0, s = 86400.0         Love no., k2    = 0.299
  Moment of inertia        = 0.3308          Atm. pressure   = 1.0 bar
  Mean surface temp (Ts), K= 287.6           Volume, km^3    = 1.08321 x 10^12
  Mean effect. temp (Te), K= 255             Magnetic moment = 0.61 gauss Rp^3
  Geometric albedo         = 0.367           Vis. mag. V(1,0)= -3.86
  Solar Constant (W/m^2)   = 1367.6 (mean), 1414 (perihelion), 1322 (aphelion)
 HELIOCENTRIC ORBIT CHARACTERISTICS:
  Obliquity to orbit, deg  = 23.4392911  Sidereal orb period  = 1.0000174 y
  Orbital speed, km/s      = 29.79       Sidereal orb period  = 365.25636 d
  Mean daily motion, deg/d = 0.9856474   Hill's sphere radius = 234.9       
*******************************************************************************


*******************************************************************************
Ephemeris / WWW_USER Wed May 22 06:58:55 2024 Pasadena, USA      / Horizons    
*******************************************************************************
Target body name: Earth (399)                     {source: DE441}
Center body name: Sun (10)                        {source: DE441}
Center-site name: BODYCENTRIC
*******************************************************************************
Start time      : A.D. 1900-Jan-01 00:00:00.0000 UT      
Stop  time      : A.D. 2200-Jan-01 00:00:00.0000 UT      
Step-size       : 7200 minutes
*******************************************************************************
Target pole/equ : ITRF93 (high precision)         {East-longitude positive}
Target radii    : 6378.137, 6378.137, 6356.752 km {Equator_a, b, pole_c}       
Center geodetic : 0.0, 0.0, -695700.0             {E-lon(deg),Lat(deg),Alt(km)}
Center cylindric: 0.0, 0.0, 0.0                   {E-lon(deg),Dxy(km),Dz(km)}
Center pole/equ : IAU_SUN                         {East-longitude positive}
Center radii    : 695700.0, 695700.0, 695700.0 km {Equator_a, b, pole_c}       
Target primary  : Sun
Vis. interferer : None
Rel. light bend : Sun                             {source: DE441}
Rel. lght bnd GM: 1.3271E+11 km^3/s^2                                          
Atmos refraction: NO (AIRLESS)
RA format       : DEG
Time format     : CAL 
Calendar mode   : Mixed Julian/Gregorian
EOP file        : eop.240521.p240814                                           
EOP coverage    : DATA-BASED 1962-JAN-20 TO 2024-MAY-21. PREDICTS-> 2024-AUG-13
Units conversion: 1 au= 149597870.700 km, c= 299792.458 km/s, 1 day= 86400.0 s 
Table cut-offs 1: Elevation (-90.0deg=NO ),Airmass     n.a.    , Daylight (NO )
Table cut-offs 2: Solar elongation (  0.0,180.0=NO ),Local Hour Angle( 0.0=NO )
Table cut-offs 3: RA/DEC angular rate (     0.0=NO )                           
Table format    : Comma Separated Values (spreadsheet)
*******************************************************************************
 Date__(UT)__HR:MN, , , hEcl-Lon,hEcl-Lat,      PlAng,  Tru_Anom,  App_Lon_Sun,
*******************************************************************************
$$SOE
 2130-May-10 00:00, , , 227.3955,  0.0137,   -0.00446,  121.8367,   49.2040849,
 2130-May-15 00:00, , , 232.2301,  0.0144,   -0.00448,  129.3303,   54.0380569,
 2130-May-20 00:00, , , 237.0522,  0.0150,   -0.00449,  135.6703,   58.8634181,
 2130-May-25 00:00, , , 241.8634,  0.0157,   -0.00450,  139.6716,   63.6791027,
 2130-May-30 00:00, , , 246.6663,  0.0163,   -0.00451,  142.1158,   68.4824010,
 2130-Jun-04 00:00, , , 251.4630,  0.0168,   -0.00453,  145.8274,   73.2741130,
 2130-Jun-09 00:00, , , 256.2535,  0.0169,   -0.00454,  152.1447,   78.0613514,
 2130-Jun-14 00:00, , , 261.0367,  0.0169,   -0.00456,  158.6693,   82.8468000,
 2130-Jun-19 00:00, , , 265.8131,  0.0169,   -0.00457,  163.6128,   87.6284861,
 2130-Jun-24 00:00, , , 270.5845,  0.0170,   -0.00459,  166.9231,   92.4031781,
 2130-Jun-29 00:00, , , 275.3539,  0.0169,   -0.00460,  170.4013,   97.1690128,
 2130-Jul-04 00:00, , , 280.1232,  0.0165,   -0.00462,  175.8898,  101.9331798,
 2130-Jul-09 00:00, , , 284.8924,  0.0159,   -0.00464,  182.2135,  106.7021529,
 2130-Jul-14 00:00, , , 289.6609,  0.0152,   -0.00466,  187.3311,  111.4747342,
 2130-Jul-19 00:00, , , 294.4290,  0.0147,   -0.00468,  190.8986,  116.2476059,
 2130-Jul-24 00:00, , , 299.1989,  0.0141,   -0.00470,  194.1985,  121.0172935,
 2130-Jul-29 00:00, , , 303.9737,  0.0133,   -0.00472,  199.4707,  125.7872893,
 2130-Aug-03 00:00, , , 308.7550,  0.0122,   -0.00474,  206.1840,  130.5663673,
 2130-Aug-08 00:00, , , 313.5425,  0.0110,   -0.00476,  211.8537,  135.3557371,
 2130-Aug-13 00:00, , , 318.3356,  0.0099,   -0.00479,  215.5225,  140.1524014,
 2130-Aug-18 00:00, , , 323.1347,  0.0088,   -0.00481,  218.0813,  144.9534287,
 2130-Aug-23 00:00, , , 327.9419,  0.0077,   -0.00484,  222.2664,  149.7583945,
 2130-Aug-28 00:00, , , 332.7601,  0.0064,   -0.00487,  229.3071,  154.5742984,
 2130-Sep-02 00:00, , , 337.5903,  0.0048,   -0.00489,  236.3370,  159.4046821,
 2130-Sep-07 00:00, , , 342.4319,  0.0033,   -0.00492,  241.0790,  164.2476182,
 2130-Sep-12 00:00, , , 347.2841,  0.0020,   -0.00495,  243.5804,  169.1009406,
 2130-Sep-17 00:00, , , 352.1468,  0.0007,   -0.00498,  245.8837,  173.9637774,
 2130-Sep-22 00:00, , , 357.0222, -0.0007,   -0.00501,  251.5824,  178.8387830,
 2130-Sep-27 00:00, , ,   1.9125, -0.0023,   -0.00504,  259.5793,  183.7293885,
 2130-Oct-02 00:00, , ,   6.8182, -0.0039,   -0.00507,  266.1958,  188.6347383,
 2130-Oct-07 00:00, , ,  11.7379, -0.0053,   -0.00510,  270.0692,  193.5536265,
 2130-Oct-12 00:00, , ,  16.6704, -0.0065,   -0.00513,  271.9946,  198.4859061,
 2130-Oct-17 00:00, , ,  21.6153, -0.0077,   -0.00517,  275.0472,  203.4324375,
 2130-Oct-22 00:00, , ,  26.5742, -0.0091,   -0.00520,  282.0948,  208.3935771,
 2130-Oct-27 00:00, , ,  31.5487, -0.0105,   -0.00524,  289.9580,  213.3677966,
 2130-Nov-01 00:00, , ,  36.5384, -0.0117,   -0.00527,  295.7465,  218.3548406,
 2130-Nov-06 00:00, , ,  41.5413, -0.0127,   -0.00530,  299.0127,  223.3557170,
 2130-Nov-11 00:00, , ,  46.5555, -0.0135,   -0.00534,  301.2373,  228.3714636,
 2130-Nov-16 00:00, , ,  51.5801, -0.0144,   -0.00537,  305.7904,  233.4006924,
 2130-Nov-21 00:00, , ,  56.6164, -0.0153,   -0.00541,  313.2649,  238.4386125,
 2130-Nov-26 00:00, , ,  61.6650, -0.0161,   -0.00544,  320.1455,  243.4842333,
 2130-Dec-01 00:00, , ,  66.7248, -0.0165,   -0.00547,  324.9707,  248.5399220,
 2130-Dec-06 00:00, , ,  71.7933, -0.0168,   -0.00550,  328.1124,  253.6080253,
 2130-Dec-11 00:00, , ,  76.8678, -0.0169,   -0.00554,  331.6481,  258.6874467,
 2130-Dec-16 00:00, , ,  81.9473, -0.0172,   -0.00558,  337.6918,  263.7715573,
 2130-Dec-21 00:00, , ,  87.0325, -0.0174,   -0.00561,  344.5620,  268.8554417,
 2130-Dec-26 00:00, , ,  92.1236, -0.0173,   -0.00563,  350.0322,  273.9417834,
 2130-Dec-31 00:00, , ,  97.2190, -0.0169,   -0.00566,  353.9745,  279.0342641,
 2131-Jan-05 00:00, , , 102.3158, -0.0163,   -0.00569,  357.6930,  284.1339336,
 2131-Jan-10 00:00, , , 107.4109, -0.0158,   -0.00573,    3.1740,  289.2347552,
 2131-Jan-15 00:00, , , 112.5036, -0.0153,   -0.00575,    9.9461,  294.3289569,
 2131-Jan-20 00:00, , , 117.5944, -0.0146,   -0.00578,   15.5846,  299.4163914,
 2131-Jan-25 00:00, , , 122.6833, -0.0137,   -0.00581,   19.5624,  304.5014627,
 2131-Jan-30 00:00, , , 127.7687, -0.0125,   -0.00583,   22.9291,  309.5868420,
 2131-Feb-04 00:00, , , 132.8475, -0.0113,   -0.00586,   27.9647,  314.6697611,
 2131-Feb-09 00:00, , , 137.9172, -0.0103,   -0.00588,   35.1399,  319.7423082,
 2131-Feb-14 00:00, , , 142.9773, -0.0092,   -0.00591,   41.7010,  324.8014367,
 2131-Feb-19 00:00, , , 148.0287, -0.0079,   -0.00593,   45.9739,  329.8502263,
 2131-Feb-24 00:00, , , 153.0715, -0.0063,   -0.00596,   48.6806,  334.8918710,
 2131-Mar-01 00:00, , , 158.1045, -0.0047,   -0.00598,   52.0800,  339.9262309,
 2131-Mar-06 00:00, , , 163.1250, -0.0033,   -0.00600,   58.7636,  344.9485407,
 2131-Mar-11 00:00, , , 168.1311, -0.0020,   -0.00602,   66.6207,  349.9549989,
 2131-Mar-16 00:00, , , 173.1231, -0.0006,   -0.00605,   72.3711,  354.9465572,
 2131-Mar-21 00:00, , , 178.1024,  0.0010,   -0.00607,   75.4987,  359.9256953,
 2131-Mar-26 00:00, , , 183.0696,  0.0026,   -0.00609,   77.4883,    4.8930651,
 2131-Mar-31 00:00, , , 188.0240,  0.0042,   -0.00611,   81.7174,    9.8468325,
 2131-Apr-05 00:00, , , 192.9635,  0.0055,   -0.00613,   89.5623,   14.7858837,
 2131-Apr-10 00:00, , , 197.8869,  0.0067,   -0.00615,   96.9996,   19.7102989,
 2131-Apr-15 00:00, , , 202.7955,  0.0080,   -0.00618,  101.7651,   24.6207134,
 2131-Apr-20 00:00, , , 207.6910,  0.0095,   -0.00620,  104.1897,   29.5173641,
 2131-Apr-25 00:00, , , 212.5749,  0.0108,   -0.00622,  106.3513,   34.3993664,
